CCSDS_OMM_VERS = 2.0
CREATION_DATE  = 
ORIGINATOR     = 

OBJECT_NAME    = COSMOS 2600
OBJECT_ID      = 2026-023A
CENTER_NAME    = EARTH
REF_FRAME      = TEME
TIME_SYSTEM    = UTC
MEAN_ELEMENT_THEORY = SGP/SGP4

EPOCH          = 2026-03-05T19:04:51.226176
MEAN_MOTION    = 15.83390719
ECCENTRICITY   = .0002149
INCLINATION    = 96.6428
RA_OF_ASC_NODE = 140.5618
ARG_OF_PERICENTER = 352.0041
MEAN_ANOMALY   = 8.1195

EPHEMERIS_TYPE = 0
CLASSIFICATION_TYPE = U
NORAD_CAT_ID   = 67674
ELEMENT_SET_NO = 999
REV_AT_EPOCH   = 443
BSTAR          = .37731E-3
MEAN_MOTION_DOT = .82036E-3
MEAN_MOTION_DDOT = 0

CCSDS_OMM_VERS = 2.0
CREATION_DATE  = 
ORIGINATOR     = 

OBJECT_NAME    = 2026-023B
OBJECT_ID      = 2026-023B
CENTER_NAME    = EARTH
REF_FRAME      = TEME
TIME_SYSTEM    = UTC
MEAN_ELEMENT_THEORY = SGP/SGP4

EPOCH          = 2026-03-05T18:40:13.577952
MEAN_MOTION    = 15.22884832
ECCENTRICITY   = .0019359
INCLINATION    = 96.6362
RA_OF_ASC_NODE = 138.1787
ARG_OF_PERICENTER = 145.2597
MEAN_ANOMALY   = 214.9910

EPHEMERIS_TYPE = 0
CLASSIFICATION_TYPE = U
NORAD_CAT_ID   = 67675
ELEMENT_SET_NO = 999
REV_AT_EPOCH   = 426
BSTAR          = .55302E-3
MEAN_MOTION_DOT = .12978E-3
MEAN_MOTION_DDOT = 0

CCSDS_OMM_VERS = 2.0
CREATION_DATE  = 
ORIGINATOR     = 

OBJECT_NAME    = 2026-023C
OBJECT_ID      = 2026-023C
CENTER_NAME    = EARTH
REF_FRAME      = TEME
TIME_SYSTEM    = UTC
MEAN_ELEMENT_THEORY = SGP/SGP4

EPOCH          = 2026-03-05T10:45:07.274304
MEAN_MOTION    = 15.22987192
ECCENTRICITY   = .002039
INCLINATION    = 96.6398
RA_OF_ASC_NODE = 137.9108
ARG_OF_PERICENTER = 136.8025
MEAN_ANOMALY   = 223.4817

EPHEMERIS_TYPE = 0
CLASSIFICATION_TYPE = U
NORAD_CAT_ID   = 67676
ELEMENT_SET_NO = 999
REV_AT_EPOCH   = 437
BSTAR          = .66102E-3
MEAN_MOTION_DOT = .15585E-3
MEAN_MOTION_DDOT = 0

CCSDS_OMM_VERS = 2.0
CREATION_DATE  = 
ORIGINATOR     = 

OBJECT_NAME    = 2026-023D
OBJECT_ID      = 2026-023D
CENTER_NAME    = EARTH
REF_FRAME      = TEME
TIME_SYSTEM    = UTC
MEAN_ELEMENT_THEORY = SGP/SGP4

EPOCH          = 2026-03-05T17:07:22.297728
MEAN_MOTION    = 15.22805720
ECCENTRICITY   = .0020585
INCLINATION    = 96.6428
RA_OF_ASC_NODE = 138.1323
ARG_OF_PERICENTER = 140.7052
MEAN_ANOMALY   = 219.5685

EPHEMERIS_TYPE = 0
CLASSIFICATION_TYPE = U
NORAD_CAT_ID   = 67677
ELEMENT_SET_NO = 999
REV_AT_EPOCH   = 424
BSTAR          = .5466E-3
MEAN_MOTION_DOT = .12805E-3
MEAN_MOTION_DDOT = 0

CCSDS_OMM_VERS = 2.0
CREATION_DATE  = 
ORIGINATOR     = 

OBJECT_NAME    = 2026-023E
OBJECT_ID      = 2026-023E
CENTER_NAME    = EARTH
REF_FRAME      = TEME
TIME_SYSTEM    = UTC
MEAN_ELEMENT_THEORY = SGP/SGP4

EPOCH          = 2026-03-05T20:13:27.117408
MEAN_MOTION    = 15.22984913
ECCENTRICITY   = .0020342
INCLINATION    = 96.6320
RA_OF_ASC_NODE = 138.2277
ARG_OF_PERICENTER = 139.7749
MEAN_ANOMALY   = 220.5000

EPHEMERIS_TYPE = 0
CLASSIFICATION_TYPE = U
NORAD_CAT_ID   = 67678
ELEMENT_SET_NO = 999
REV_AT_EPOCH   = 426
BSTAR          = .62626E-3
MEAN_MOTION_DOT = .14759E-3
MEAN_MOTION_DDOT = 0

CCSDS_OMM_VERS = 2.0
CREATION_DATE  = 
ORIGINATOR     = 

OBJECT_NAME    = 2026-023F
OBJECT_ID      = 2026-023F
CENTER_NAME    = EARTH
REF_FRAME      = TEME
TIME_SYSTEM    = UTC
MEAN_ELEMENT_THEORY = SGP/SGP4

EPOCH          = 2026-03-05T20:09:39.275424
MEAN_MOTION    = 15.23139449
ECCENTRICITY   = .0022135
INCLINATION    = 96.6325
RA_OF_ASC_NODE = 140.7281
ARG_OF_PERICENTER = 134.5723
MEAN_ANOMALY   = 225.7327

EPHEMERIS_TYPE = 0
CLASSIFICATION_TYPE = U
NORAD_CAT_ID   = 67679
ELEMENT_SET_NO = 999
REV_AT_EPOCH   = 425
BSTAR          = .62395E-3
MEAN_MOTION_DOT = .14788E-3
MEAN_MOTION_DDOT = 0

CCSDS_OMM_VERS = 2.0
CREATION_DATE  = 
ORIGINATOR     = 

OBJECT_NAME    = 2026-023G
OBJECT_ID      = 2026-023G
CENTER_NAME    = EARTH
REF_FRAME      = TEME
TIME_SYSTEM    = UTC
MEAN_ELEMENT_THEORY = SGP/SGP4

EPOCH          = 2026-03-05T20:10:42.999744
MEAN_MOTION    = 15.23097821
ECCENTRICITY   = .0023668
INCLINATION    = 96.6255
RA_OF_ASC_NODE = 140.7092
ARG_OF_PERICENTER = 131.2883
MEAN_ANOMALY   = 229.0399

EPHEMERIS_TYPE = 0
CLASSIFICATION_TYPE = U
NORAD_CAT_ID   = 67680
ELEMENT_SET_NO = 999
REV_AT_EPOCH   = 425
BSTAR          = .65596E-3
MEAN_MOTION_DOT = .15547E-3
MEAN_MOTION_DDOT = 0

CCSDS_OMM_VERS = 2.0
CREATION_DATE  = 
ORIGINATOR     = 

OBJECT_NAME    = 2026-023H
OBJECT_ID      = 2026-023H
CENTER_NAME    = EARTH
REF_FRAME      = TEME
TIME_SYSTEM    = UTC
MEAN_ELEMENT_THEORY = SGP/SGP4

EPOCH          = 2026-03-05T20:10:58.225152
MEAN_MOTION    = 15.23023637
ECCENTRICITY   = .0023767
INCLINATION    = 96.6402
RA_OF_ASC_NODE = 140.7425
ARG_OF_PERICENTER = 130.6569
MEAN_ANOMALY   = 229.6741

EPHEMERIS_TYPE = 0
CLASSIFICATION_TYPE = U
NORAD_CAT_ID   = 67681
ELEMENT_SET_NO = 999
REV_AT_EPOCH   = 425
BSTAR          = .58037E-3
MEAN_MOTION_DOT = .13716E-3
MEAN_MOTION_DDOT = 0

CCSDS_OMM_VERS = 2.0
CREATION_DATE  = 
ORIGINATOR     = 

OBJECT_NAME    = 2026-023J
OBJECT_ID      = 2026-023J
CENTER_NAME    = EARTH
REF_FRAME      = TEME
TIME_SYSTEM    = UTC
MEAN_ELEMENT_THEORY = SGP/SGP4

EPOCH          = 2026-03-05T20:09:11.205792
MEAN_MOTION    = 15.23129096
ECCENTRICITY   = .0023859
INCLINATION    = 96.6355
RA_OF_ASC_NODE = 140.7462
ARG_OF_PERICENTER = 127.5039
MEAN_ANOMALY   = 232.8373

EPHEMERIS_TYPE = 0
CLASSIFICATION_TYPE = U
NORAD_CAT_ID   = 67682
ELEMENT_SET_NO = 999
REV_AT_EPOCH   = 425
BSTAR          = .6152E-3
MEAN_MOTION_DOT = .14591E-3
MEAN_MOTION_DDOT = 0

CCSDS_OMM_VERS = 2.0
CREATION_DATE  = 
ORIGINATOR     = 

OBJECT_NAME    = ISS OBJECT XZ
OBJECT_ID      = 1998-067XZ
CENTER_NAME    = EARTH
REF_FRAME      = TEME
TIME_SYSTEM    = UTC
MEAN_ELEMENT_THEORY = SGP/SGP4

EPOCH          = 2026-03-04T07:37:01.846272
MEAN_MOTION    = 15.51337660
ECCENTRICITY   = .00094914
INCLINATION    = 51.6304
RA_OF_ASC_NODE = 98.5346
ARG_OF_PERICENTER = 167.7937
MEAN_ANOMALY   = 192.3284

EPHEMERIS_TYPE = 0
CLASSIFICATION_TYPE = U
NORAD_CAT_ID   = 67683
ELEMENT_SET_NO = 999
REV_AT_EPOCH   = 395
BSTAR          = .87420501E-3
MEAN_MOTION_DOT = .52289E-3
MEAN_MOTION_DDOT = 0

CCSDS_OMM_VERS = 2.0
CREATION_DATE  = 
ORIGINATOR     = 

OBJECT_NAME    = GXIBA-1
OBJECT_ID      = 1998-067YA
CENTER_NAME    = EARTH
REF_FRAME      = TEME
TIME_SYSTEM    = UTC
MEAN_ELEMENT_THEORY = SGP/SGP4

EPOCH          = 2026-03-05T10:56:24.455040
MEAN_MOTION    = 15.53561731
ECCENTRICITY   = .001097
INCLINATION    = 51.6299
RA_OF_ASC_NODE = 92.6362
ARG_OF_PERICENTER = 161.6042
MEAN_ANOMALY   = 198.5347

EPHEMERIS_TYPE = 0
CLASSIFICATION_TYPE = U
NORAD_CAT_ID   = 67684
ELEMENT_SET_NO = 999
REV_AT_EPOCH   = 413
BSTAR          = .12309E-2
MEAN_MOTION_DOT = .80338E-3
MEAN_MOTION_DDOT = 0

CCSDS_OMM_VERS = 2.0
CREATION_DATE  = 
ORIGINATOR     = 

OBJECT_NAME    = CORAL
OBJECT_ID      = 1998-067YB
CENTER_NAME    = EARTH
REF_FRAME      = TEME
TIME_SYSTEM    = UTC
MEAN_ELEMENT_THEORY = SGP/SGP4

EPOCH          = 2026-03-05T08:16:08.338944
MEAN_MOTION    = 15.51741434
ECCENTRICITY   = .0011326
INCLINATION    = 51.6309
RA_OF_ASC_NODE = 93.3938
ARG_OF_PERICENTER = 167.4976
MEAN_ANOMALY   = 192.6297

EPHEMERIS_TYPE = 0
CLASSIFICATION_TYPE = U
NORAD_CAT_ID   = 67685
ELEMENT_SET_NO = 999
REV_AT_EPOCH   = 411
BSTAR          = .77286E-3
MEAN_MOTION_DOT = .46853E-3
MEAN_MOTION_DDOT = 0

